NORAD_CAT_ID,OBJECT_NAME,OBJECT_TYPE,EPOCH,MEAN_MOTION,ECCENTRICITY,INCLINATION,RA_OF_ASC_NODE,ARG_OF_PERICENTER,MEAN_ANOMALY,BSTAR,MEAN_MOTION_DOT,MEAN_MOTION_DDOT,TLE_LINE0,TLE_LINE1,TLE_LINE2,SEMIMAJOR_AXIS,PERIOD,APOGEE,PERIGEE,DECAYED
54052.0,STARLINK-5189,PAYLOAD,2023-05-04 16:38:43,15.08840922,9.22e-05,53.2164,292.6564,99.3205,260.7892,1.3372e-05,-7.5e-07,0.0,0 STARLINK-5189,1 54052U 22136B   23124.69355776 -.00000075  00000-0  13372-4 0  9993,2 54052  53.2164 292.6564 0000922  99.3205 260.7892 15.08840922 30897,6917.878,95.437,540.38,539.105,0.0
54052.0,STARLINK-5189,PAYLOAD,2023-05-05 06:57:12,15.08830706,9.48e-05,53.217,289.9812,91.267,268.8431,2.0693e-05,4.2e-07,0.0,0 STARLINK-5189,1 54052U 22136B   23125.28972523  .00000042  00000-0  20693-4 0  9991,2 54052  53.2170 289.9812 0000948  91.2670 268.8431 15.08830706 30981,6917.909,95.438,540.43,539.118,0.0
54052.0,STARLINK-5189,PAYLOAD,2023-05-05 18:04:53,15.08850435,8.17e-05,53.2166,287.9007,82.3492,277.7593,-0.00012123,-2.217e-05,0.0,0 STARLINK-5189,1 54052U 22136B   23125.75340056 -.00002217  00000-0 -12123-3 0  9999,2 54052  53.2166 287.9007 0000817  82.3492 277.7593 15.08850435 31056,6917.848,95.437,540.279,539.148,0.0
54052.0,STARLINK-5189,PAYLOAD,2023-05-06 03:37:12,15.08832899,9.02e-05,53.2168,286.117,95.7112,264.3983,0.00015242,2.138e-05,0.0,0 STARLINK-5189,1 54052U 22136B   23126.15084446  .00002138  00000-0  15242-3 0  9997,2 54052  53.2168 286.1170 0000902  95.7112 264.3983 15.08832899 31118,6917.902,95.438,540.391,539.143,0.0
54052.0,STARLINK-5189,PAYLOAD,2023-05-06 13:09:31,15.08838204,9.61e-05,53.2165,284.3327,88.9128,271.1974,4.4847e-05,4.26e-06,0.0,0 STARLINK-5189,1 54052U 22136B   23126.54828506  .00000426  00000-0  44847-4 0  9995,2 54052  53.2165 284.3327 0000961  88.9128 271.1974 15.08838204 30688,6917.886,95.438,540.416,539.086,0.0
54052.0,STARLINK-5189,PAYLOAD,2023-05-07 03:28:00,15.08836569,0.0001077,53.2168,281.6563,89.4339,270.6776,2.9968e-05,1.89e-06,0.0,0 STARLINK-5189,1 54052U 22136B   23127.14444654  .00000189  00000-0  29968-4 0  9993,2 54052  53.2168 281.6563 0001077  89.4339 270.6776 15.08836569 30778,6917.891,95.438,540.501,539.011,0.0
54052.0,STARLINK-5189,PAYLOAD,2023-05-07 17:46:28,15.08835014,8.87e-05,53.2162,278.9795,80.4799,279.6293,4.7703e-05,4.71e-06,0.0,0 STARLINK-5189,1 54052U 22136B   23127.74060903  .00000471  00000-0  47703-4 0  9991,2 54052  53.2162 278.9795 0000887  80.4799 279.6293 15.08835014 31359,6917.896,95.438,540.374,539.147,0.0
54052.0,STARLINK-5189,PAYLOAD,2023-05-08 16:01:51,15.08843252,7.88e-05,53.2159,274.8173,79.4254,280.6827,8.4257e-05,1.054e-05,0.0,0 STARLINK-5189,1 54052U 22136B   23128.66796278  .00001054  00000-0  84257-4 0  9997,2 54052  53.2159 274.8173 0000788  79.4254 280.6827 15.08843252 31004,6917.87,95.437,540.281,539.19,0.0
54052.0,STARLINK-5189,PAYLOAD,2023-05-09 14:17:12,15.08882778,9.55e-05,53.2163,270.6546,101.2163,258.8936,0.00050124,7.708e-05,0.0,0 STARLINK-5189,1 54052U 22136B   23129.59528626  .00007708  00000-0  50124-3 0  9997,2 54052  53.2163 270.6546 0000955 101.2163 258.8936 15.08882778 31145,6917.75,95.435,540.275,538.954,0.0
54052.0,STARLINK-5189,PAYLOAD,2023-05-10 12:32:40,15.08829583,8.79e-05,53.2169,266.4897,75.9907,284.1183,-4.652e-05,-1.028e-05,0.0,0 STARLINK-5189,1 54052U 22136B   23130.52269546 -.00001028  00000-0 -46520-4 0  9992,2 54052  53.2169 266.4897 0000879  75.9907 284.1183 15.08829583 31287,6917.912,95.438,540.385,539.169,0.0
54052.0,STARLINK-5189,PAYLOAD,2023-05-10 15:43:25,15.0884935,9.15e-05,53.2169,265.8942,75.7995,284.3099,2.9969e-05,1.89e-06,0.0,0 STARLINK-5189,1 54052U 22136B   23130.65516103  .00000189  00000-0  29969-4 0  9993,2 54052  53.2169 265.8942 0000915  75.7995 284.3099 15.08849350 31302,6917.852,95.437,540.35,539.084,0.0
54052.0,STARLINK-5189,PAYLOAD,2023-05-11 15:34:12,15.08876083,8.8e-05,53.2167,261.4333,54.8535,305.2539,-0.00036934,-6.167e-05,0.0,0 STARLINK-5189,1 54052U 22136B   23131.64875676 -.00006167  00000-0 -36934-3 0  9999,2 54052  53.2167 261.4333 0000880  54.8535 305.2539 15.08876083 31940,6917.77,95.435,540.244,539.026,0.0
54052.0,STARLINK-5189,PAYLOAD,2023-05-12 01:06:32,15.08840653,0.0001388,53.2177,259.6473,56.4604,303.6521,4.9624e-06,-2.09e-06,0.0,0 STARLINK-5189,1 54052U 22136B   23132.04620699 -.00000209  00000-0  49624-5 0  9999,2 54052  53.2177 259.6473 0001388  56.4604 303.6521 15.08840653 32009,6917.878,95.438,540.704,538.783,0.0
54052.0,STARLINK-5189,PAYLOAD,2023-05-12 15:25:00,15.08832395,0.0001037,53.2174,256.9714,78.7286,281.3822,2.7913e-05,1.56e-06,0.0,0 STARLINK-5189,1 54052U 22136B   23132.64237230  .00000156  00000-0  27913-4 0  9996,2 54052  53.2174 256.9714 0001037  78.7286 281.3822 15.08832395 32097,6917.904,95.438,540.486,539.051,0.0
54052.0,STARLINK-5189,PAYLOAD,2023-05-13 12:05:01,15.08846536,0.0001013,53.218,253.1095,102.7798,257.3307,-2.8618e-05,-7.43e-06,0.0,0 STARLINK-5189,1 54052U 22136B   23133.50348585 -.00000743  00000-0 -28618-4 0  9995,2 54052  53.2180 253.1095 0001013 102.7798 257.3307 15.08846536 31738,6917.86,95.437,540.426,539.025,0.0
54052.0,STARLINK-5189,PAYLOAD,2023-05-13 13:40:23,15.088518,8.69e-05,53.2177,252.8125,97.0582,263.0509,9.1508e-05,1.169e-05,0.0,0 STARLINK-5189,1 54052U 22136B   23133.56971872  .00001169  00000-0  91508-4 0  9991,2 54052  53.2177 252.8125 0000869  97.0582 263.0509 15.08851800 32233,6917.844,95.437,540.31,539.108,0.0
54052.0,STARLINK-5189,PAYLOAD,2023-05-13 15:15:47,15.08846376,9.74e-05,53.2178,252.5147,86.1047,274.0056,3.0777e-05,2.02e-06,0.0,0 STARLINK-5189,1 54052U 22136B   23133.63596401  .00000202  00000-0  30777-4 0  9998,2 54052  53.2178 252.5147 0000974  86.1047 274.0056 15.08846376 31754,6917.861,95.437,540.4,539.052,0.0
54052.0,STARLINK-5189,PAYLOAD,2023-05-14 00:48:06,15.08836075,8.51e-05,53.2179,250.7308,94.106,266.0029,5.4961e-05,5.87e-06,0.0,0 STARLINK-5189,1 54052U 22136B   23134.03340926  .00000587  00000-0  54961-4 0  9999,2 54052  53.2179 250.7308 0000851  94.1060 266.0029 15.08836075 32300,6917.892,95.438,540.346,539.169,0.0
54052.0,STARLINK-5189,PAYLOAD,2023-05-14 13:31:12,15.08835259,0.0001115,53.2178,248.3544,90.29,269.822,-4.3756e-07,-2.95e-06,0.0,0 STARLINK-5189,1 54052U 22136B   23134.56333501 -.00000295  00000-0 -43756-6 0  9998,2 54052  53.2178 248.3544 0001115  90.2900 269.8220 15.08835259 31898,6917.895,95.438,540.531,538.989,0.0
54052.0,STARLINK-5189,PAYLOAD,2023-05-14 15:06:35,15.08837796,0.0001104,53.2177,248.057,86.2971,273.8148,1.1119e-05,-1.11e-06,0.0,0 STARLINK-5189,1 54052U 22136B   23134.62957320 -.00000111  00000-0  11119-4 0  9998,2 54052  53.2177 248.0570 0001104  86.2971 273.8148 15.08837796 31908,6917.887,95.438,540.516,538.988,0.0
54052.0,STARLINK-5189,PAYLOAD,2023-05-15 13:21:59,15.08839812,8.51e-05,53.2161,243.8923,65.9297,294.1784,-3.687e-05,-8.74e-06,0.0,0 STARLINK-5189,1 54052U 22136B   23135.55693468 -.00000874  00000-0 -36870-4 0  9999,2 54052  53.2161 243.8923 0000851  65.9297 294.1784 15.08839812 32532,6917.881,95.438,540.335,539.157,0.0
54052.0,STARLINK-5189,PAYLOAD,2023-05-15 14:57:21,15.08847934,8.55e-05,53.2164,243.5939,76.9823,283.1264,-5.9801e-05,-1.24e-05,0.0,0 STARLINK-5189,1 54052U 22136B   23135.62317043 -.00001240  00000-0 -59801-4 0  9996,2 54052  53.2164 243.5939 0000855  76.9823 283.1264 15.08847934 32546,6917.856,95.437,540.313,539.13,0.0
54052.0,STARLINK-5189,PAYLOAD,2023-05-16 06:51:13,15.08825674,0.0001088,53.216,240.6208,84.0177,276.0939,0.00021995,3.213e-05,0.0,0 STARLINK-5189,1 54052U 22136B   23136.28557687  .00003213  00000-0  21995-3 0  9991,2 54052  53.2160 240.6208 0001088  84.0177 276.0939 15.08825674 32648,6917.924,95.438,540.542,539.037,0.0
54052.0,STARLINK-5189,PAYLOAD,2023-05-16 13:12:45,15.08841602,9.71e-05,53.216,239.4313,81.6398,278.4704,5.7405e-05,6.26e-06,0.0,0 STARLINK-5189,1 54052U 22136B   23136.55053172  .00000626  00000-0  57405-4 0  9992,2 54052  53.2160 239.4313 0000971  81.6398 278.4704 15.08841602 32688,6917.875,95.437,540.412,539.069,0.0
54052.0,STARLINK-5189,PAYLOAD,2023-05-17 11:28:09,15.08874315,0.000117,53.2161,235.2673,76.6688,283.4434,-0.00044638,-7.392e-05,0.0,0 STARLINK-5189,1 54052U 22136B   23137.47788252 -.00007392  00000-0 -44638-3 0  9990,2 54052  53.2161 235.2673 0001170  76.6688 283.4434 15.08874315 32829,6917.776,95.435,540.45,538.831,0.0
54052.0,STARLINK-5189,PAYLOAD,2023-05-17 16:14:18,15.08845026,0.0001062,53.2162,234.3746,94.3715,265.7398,5.8429e-05,6.42e-06,0.0,0 STARLINK-5189,1 54052U 22136B   23137.67660813  .00000642  00000-0  58429-4 0  9997,2 54052  53.2162 234.3746 0001062  94.3715 265.7398 15.08845026 32851,6917.865,95.437,540.465,538.995,0.0
54052.0,STARLINK-5189,PAYLOAD,2023-05-18 12:54:20,15.08844767,0.0001428,53.2166,230.5061,119.4832,240.6303,-0.00010101,-1.895e-05,0.0,0 STARLINK-5189,1 54052U 22136B   23138.53773297 -.00001895  00000-0 -10101-3 0  9991,2 54052  53.2166 230.5061 0001428 119.4832 240.6303 15.08844767 32981,6917.866,95.437,540.719,538.743,0.0
54052.0,STARLINK-5189,PAYLOAD,2023-05-18 17:40:29,15.08842005,0.0001124,53.2164,229.6145,106.6783,253.4333,-3.4675e-06,-3.43e-06,0.0,0 STARLINK-5189,1 54052U 22136B   23138.73645165 -.00000343  00000-0 -34675-5 0  9996,2 54052  53.2164 229.6145 0001124 106.6783 253.4333 15.08842005 32525,6917.874,95.437,540.517,538.962,0.0
54052.0,STARLINK-5189,PAYLOAD,2023-05-19 09:34:21,15.08836723,0.0001342,53.2173,226.6398,116.8016,243.3114,-3.0522e-05,-7.74e-06,0.0,0 STARLINK-5189,1 54052U 22136B   23139.39885733 -.00000774  00000-0 -30522-4 0  9990,2 54052  53.2173 226.6398 0001342 116.8016 243.3114 15.08836723 33117,6917.89,95.438,540.684,538.827,0.0
54052.0,STARLINK-5189,PAYLOAD,2023-05-19 11:09:44,15.08837842,0.0001333,53.2174,226.3427,115.1363,244.9767,-1.6723e-05,-5.54e-06,0.0,0 STARLINK-5189,1 54052U 22136B   23139.46509637 -.00000554  00000-0 -16723-4 0  9997,2 54052  53.2174 226.3427 0001333 115.1363 244.9767 15.08837842 32635,6917.887,95.438,540.674,538.83,0.0
